{
  "type": "FeatureCollection",
  "features": [
    {"type":"Feature","properties":{"district_name":"Mumbai","state":"Maharashtra","risk_level":"High","elevation":14,"rainfall":2400,"population":"12.4M","flood_zones":"Dharavi, Kurla, Chembur, Malad, Andheri, Sion, Bandra","river":"Mithi River","river_dist":0.5},"geometry":{"type":"Polygon","coordinates":[[[72.776,18.892],[72.820,18.875],[72.860,18.882],[72.910,18.920],[72.950,18.980],[72.970,19.040],[72.980,19.100],[72.970,19.160],[72.940,19.220],[72.900,19.260],[72.850,19.280],[72.810,19.270],[72.780,19.240],[72.760,19.200],[72.750,19.150],[72.755,19.100],[72.760,19.050],[72.765,19.000],[72.770,18.950],[72.776,18.892]]]}},
    {"type":"Feature","properties":{"district_name":"Thane","state":"Maharashtra","risk_level":"High","elevation":7,"rainfall":2200,"population":"1.8M","flood_zones":"Ulhas River Banks, Kopri, Naupada, Wagle Estate","river":"Ulhas River","river_dist":1.2},"geometry":{"type":"Polygon","coordinates":[[[72.940,19.100],[72.980,19.090],[73.020,19.100],[73.060,19.130],[73.090,19.170],[73.100,19.220],[73.090,19.270],[73.060,19.310],[73.020,19.330],[72.980,19.320],[72.940,19.300],[72.910,19.260],[72.900,19.220],[72.910,19.170],[72.940,19.100]]]}},
    {"type":"Feature","properties":{"district_name":"Raigad","state":"Maharashtra","risk_level":"Medium","elevation":18,"rainfall":3000,"population":"0.3M","flood_zones":"Panvel Creek, Uran, Alibag coastal areas","river":"Patalganga River","river_dist":2.0},"geometry":{"type":"Polygon","coordinates":[[[72.900,18.500],[72.960,18.480],[73.020,18.490],[73.080,18.520],[73.120,18.570],[73.140,18.630],[73.130,18.690],[73.100,18.740],[73.050,18.760],[72.990,18.750],[72.940,18.720],[72.910,18.670],[72.890,18.610],[72.890,18.550],[72.900,18.500]]]}},
    {"type":"Feature","properties":{"district_name":"Kolhapur","state":"Maharashtra","risk_level":"High","elevation":569,"rainfall":1016,"population":"0.5M","flood_zones":"Panchganga Banks, Rajaram Nagar, Shivaji Peth, Kasba Bawada, Mangalwar Peth","river":"Panchganga River","river_dist":0.3},"geometry":{"type":"Polygon","coordinates":[[[74.180,16.630],[74.205,16.625],[74.220,16.630],[74.240,16.645],[74.260,16.660],[74.280,16.670],[74.300,16.680],[74.310,16.695],[74.310,16.710],[74.300,16.725],[74.280,16.735],[74.260,16.740],[74.235,16.735],[74.210,16.725],[74.195,16.710],[74.185,16.695],[74.175,16.680],[74.170,16.660],[74.175,16.645],[74.180,16.630]]]}},
    {"type":"Feature","properties":{"district_name":"Sangli","state":"Maharashtra","risk_level":"High","elevation":548,"rainfall":780,"population":"0.6M","flood_zones":"Krishna River Banks, Miraj, Kupwad, Vishrambag","river":"Krishna River","river_dist":0.2},"geometry":{"type":"Polygon","coordinates":[[[74.520,16.830],[74.550,16.820],[74.580,16.830],[74.610,16.850],[74.630,16.870],[74.640,16.895],[74.635,16.920],[74.610,16.935],[74.580,16.940],[74.550,16.935],[74.520,16.920],[74.505,16.900],[74.500,16.875],[74.505,16.850],[74.520,16.830]]]}},
    {"type":"Feature","properties":{"district_name":"Nashik","state":"Maharashtra","risk_level":"Medium","elevation":565,"rainfall":603,"population":"1.5M","flood_zones":"Godavari River Banks, Panchvati, Nashik Road","river":"Godavari River","river_dist":1.5},"geometry":{"type":"Polygon","coordinates":[[[73.650,19.880],[73.700,19.870],[73.760,19.875],[73.820,19.900],[73.860,19.930],[73.880,19.970],[73.870,20.010],[73.840,20.040],[73.800,20.060],[73.750,20.065],[73.700,20.055],[73.660,20.030],[73.635,20.000],[73.625,19.960],[73.635,19.920],[73.650,19.880]]]}},
    {"type":"Feature","properties":{"district_name":"Pune","state":"Maharashtra","risk_level":"Low","elevation":560,"rainfall":722,"population":"3.1M","flood_zones":"Mutha River Banks, Kothrud, Panshet Dam area","river":"Mutha River","river_dist":1.5},"geometry":{"type":"Polygon","coordinates":[[[73.730,18.420],[73.780,18.415],[73.830,18.420],[73.880,18.440],[73.930,18.470],[73.970,18.510],[74.000,18.560],[74.000,18.610],[73.970,18.660],[73.930,18.700],[73.880,18.730],[73.830,18.740],[73.780,18.735],[73.730,18.720],[73.690,18.690],[73.660,18.650],[73.650,18.605],[73.660,18.560],[73.690,18.490],[73.730,18.420]]]}},
    {"type":"Feature","properties":{"district_name":"Nagpur","state":"Maharashtra","risk_level":"Low","elevation":310,"rainfall":1205,"population":"2.4M","flood_zones":"Nag River Banks, Ambazari Lake area","river":"Nag River","river_dist":1.0},"geometry":{"type":"Polygon","coordinates":[[[79.000,21.050],[79.060,21.040],[79.120,21.050],[79.180,21.070],[79.220,21.100],[79.240,21.140],[79.230,21.180],[79.200,21.210],[79.160,21.230],[79.110,21.235],[79.060,21.225],[79.020,21.200],[79.000,21.165],[78.990,21.130],[79.000,21.050]]]}},
    {"type":"Feature","properties":{"district_name":"Patna","state":"Bihar","risk_level":"High","elevation":53,"rainfall":1100,"population":"2.0M","flood_zones":"Digha Ghat, Gandhi Maidan, Rajendra Nagar, Kadamkuan, Kankarbagh","river":"Ganges","river_dist":0.8},"geometry":{"type":"Polygon","coordinates":[[[85.050,25.560],[85.100,25.550],[85.150,25.552],[85.200,25.558],[85.250,25.570],[85.280,25.590],[85.300,25.610],[85.310,25.630],[85.300,25.650],[85.280,25.660],[85.250,25.665],[85.200,25.660],[85.150,25.655],[85.100,25.640],[85.060,25.620],[85.040,25.600],[85.035,25.580],[85.050,25.560]]]}},
    {"type":"Feature","properties":{"district_name":"Muzaffarpur","state":"Bihar","risk_level":"High","elevation":60,"rainfall":1150,"population":"0.4M","flood_zones":"Burhi Gandak Banks, Motipur, Saraiya, Mustafapur","river":"Gandak River","river_dist":3.5},"geometry":{"type":"Polygon","coordinates":[[[85.350,26.080],[85.380,26.070],[85.420,26.075],[85.460,26.090],[85.490,26.110],[85.500,26.135],[85.490,26.160],[85.460,26.175],[85.420,26.180],[85.380,26.170],[85.350,26.155],[85.330,26.130],[85.325,26.105],[85.335,26.090],[85.350,26.080]]]}},
    {"type":"Feature","properties":{"district_name":"Darbhanga","state":"Bihar","risk_level":"High","elevation":52,"rainfall":1200,"population":"0.3M","flood_zones":"Bagmati River Banks, Kamla Balan, Laheria Sarai","river":"Bagmati River","river_dist":2.0},"geometry":{"type":"Polygon","coordinates":[[[85.850,26.100],[85.890,26.090],[85.930,26.095],[85.970,26.110],[86.000,26.135],[86.010,26.165],[86.000,26.195],[85.970,26.215],[85.930,26.220],[85.890,26.210],[85.855,26.190],[85.835,26.165],[85.830,26.135],[85.840,26.115],[85.850,26.100]]]}},
    {"type":"Feature","properties":{"district_name":"Bhagalpur","state":"Bihar","risk_level":"High","elevation":44,"rainfall":1100,"population":"0.4M","flood_zones":"Ganga Banks, Nathnagar, Barari, Champanagar","river":"Ganges","river_dist":0.6},"geometry":{"type":"Polygon","coordinates":[[[86.950,25.220],[86.990,25.210],[87.040,25.215],[87.080,25.230],[87.110,25.255],[87.120,25.285],[87.110,25.315],[87.080,25.335],[87.040,25.340],[86.990,25.330],[86.955,25.310],[86.935,25.280],[86.930,25.250],[86.940,25.230],[86.950,25.220]]]}},
    {"type":"Feature","properties":{"district_name":"Kolkata","state":"West Bengal","risk_level":"High","elevation":9,"rainfall":1600,"population":"14.0M","flood_zones":"Garden Reach, Watgunge, Chetla, Khidirpur, Tiljala, Topsia","river":"Hooghly River","river_dist":2.0},"geometry":{"type":"Polygon","coordinates":[[[88.280,22.480],[88.310,22.475],[88.340,22.480],[88.380,22.495],[88.420,22.520],[88.450,22.550],[88.460,22.590],[88.460,22.630],[88.450,22.670],[88.420,22.700],[88.380,22.720],[88.340,22.730],[88.300,22.720],[88.270,22.700],[88.250,22.670],[88.240,22.630],[88.240,22.590],[88.250,22.550],[88.270,22.520],[88.280,22.480]]]}},
    {"type":"Feature","properties":{"district_name":"Howrah","state":"West Bengal","risk_level":"High","elevation":11,"rainfall":1580,"population":"1.1M","flood_zones":"Hooghly Banks, Shibpur, Bally, Liluah","river":"Hooghly River","river_dist":0.5},"geometry":{"type":"Polygon","coordinates":[[[88.260,22.540],[88.300,22.530],[88.340,22.540],[88.370,22.560],[88.385,22.590],[88.380,22.625],[88.360,22.650],[88.330,22.665],[88.295,22.660],[88.265,22.640],[88.250,22.610],[88.250,22.575],[88.260,22.540]]]}},
    {"type":"Feature","properties":{"district_name":"North 24 Parganas","state":"West Bengal","risk_level":"High","elevation":8,"rainfall":1600,"population":"1.0M","flood_zones":"Bongaon, Basirhat, Sandeshkhali, Hingalganj","river":"Ichhamati River","river_dist":1.5},"geometry":{"type":"Polygon","coordinates":[[[88.500,22.700],[88.570,22.680],[88.640,22.690],[88.700,22.730],[88.740,22.780],[88.750,22.840],[88.730,22.900],[88.690,22.940],[88.640,22.960],[88.580,22.950],[88.530,22.920],[88.500,22.880],[88.490,22.830],[88.500,22.770],[88.500,22.700]]]}},
    {"type":"Feature","properties":{"district_name":"Siliguri","state":"West Bengal","risk_level":"Medium","elevation":122,"rainfall":3200,"population":"0.7M","flood_zones":"Mahananda River Banks, Bagdogra, Champasari","river":"Mahananda River","river_dist":4.0},"geometry":{"type":"Polygon","coordinates":[[[88.350,26.650],[88.400,26.640],[88.450,26.645],[88.490,26.665],[88.515,26.695],[88.520,26.730],[88.505,26.760],[88.475,26.780],[88.440,26.785],[88.400,26.775],[88.365,26.755],[88.345,26.725],[88.340,26.695],[88.350,26.665],[88.350,26.650]]]}},
    {"type":"Feature","properties":{"district_name":"Guwahati","state":"Assam","risk_level":"High","elevation":54,"rainfall":2800,"population":"1.0M","flood_zones":"Bharalumukh, Uzanbazar, Panbazar, Jalukbari, Dispur","river":"Brahmaputra","river_dist":1.5},"geometry":{"type":"Polygon","coordinates":[[[91.620,26.080],[91.660,26.075],[91.700,26.080],[91.740,26.095],[91.770,26.110],[91.800,26.130],[91.820,26.160],[91.810,26.190],[91.780,26.210],[91.740,26.220],[91.700,26.215],[91.660,26.200],[91.630,26.180],[91.610,26.150],[91.605,26.120],[91.615,26.100],[91.620,26.080]]]}},
    {"type":"Feature","properties":{"district_name":"Jorhat","state":"Assam","risk_level":"High","elevation":116,"rainfall":2300,"population":"0.2M","flood_zones":"Brahmaputra Banks, Dolobari, Titabor","river":"Brahmaputra","river_dist":8.0},"geometry":{"type":"Polygon","coordinates":[[[94.150,26.680],[94.200,26.670],[94.250,26.675],[94.290,26.695],[94.315,26.725],[94.320,26.760],[94.305,26.790],[94.275,26.810],[94.235,26.815],[94.195,26.805],[94.160,26.785],[94.140,26.755],[94.135,26.720],[94.145,26.695],[94.150,26.680]]]}},
    {"type":"Feature","properties":{"district_name":"Dibrugarh","state":"Assam","risk_level":"High","elevation":110,"rainfall":2818,"population":"0.2M","flood_zones":"Brahmaputra Banks, Naharkatia, Duliajan","river":"Brahmaputra","river_dist":5.0},"geometry":{"type":"Polygon","coordinates":[[[94.820,27.380],[94.870,27.370],[94.920,27.375],[94.960,27.395],[94.985,27.425],[94.990,27.460],[94.975,27.490],[94.945,27.510],[94.905,27.515],[94.865,27.505],[94.830,27.485],[94.810,27.455],[94.805,27.420],[94.815,27.395],[94.820,27.380]]]}},
    {"type":"Feature","properties":{"district_name":"Silchar","state":"Assam","risk_level":"Medium","elevation":25,"rainfall":2620,"population":"0.2M","flood_zones":"Barak River Banks, Tarapur, Sonai Road","river":"Barak River","river_dist":2.5},"geometry":{"type":"Polygon","coordinates":[[[92.740,24.760],[92.790,24.750],[92.840,24.755],[92.880,24.775],[92.905,24.805],[92.910,24.840],[92.895,24.870],[92.865,24.890],[92.825,24.895],[92.785,24.885],[92.750,24.865],[92.730,24.835],[92.725,24.800],[92.735,24.775],[92.740,24.760]]]}},
    {"type":"Feature","properties":{"district_name":"Chennai","state":"Tamil Nadu","risk_level":"Medium","elevation":7,"rainfall":1400,"population":"7.1M","flood_zones":"Adyar River, Cooum River Banks, Velachery, Tambaram, Pallikaranai","river":"Adyar River","river_dist":1.0},"geometry":{"type":"Polygon","coordinates":[[[80.170,12.950],[80.200,12.945],[80.240,12.950],[80.280,12.965],[80.310,12.990],[80.330,13.020],[80.340,13.055],[80.340,13.090],[80.320,13.120],[80.290,13.140],[80.250,13.150],[80.210,13.145],[80.180,13.130],[80.160,13.105],[80.150,13.070],[80.155,13.035],[80.170,12.950]]]}},
    {"type":"Feature","properties":{"district_name":"Coimbatore","state":"Tamil Nadu","risk_level":"Low","elevation":416,"rainfall":696,"population":"1.1M","flood_zones":"Noyyal River Banks, Ukkadam Lake","river":"Noyyal River","river_dist":3.5},"geometry":{"type":"Polygon","coordinates":[[[76.900,10.920],[76.960,10.910],[77.020,10.915],[77.075,10.935],[77.110,10.965],[77.120,11.000],[77.105,11.035],[77.070,11.055],[77.025,11.060],[76.975,11.050],[76.935,11.025],[76.910,10.995],[76.900,10.960],[76.905,10.935],[76.900,10.920]]]}},
    {"type":"Feature","properties":{"district_name":"Madurai","state":"Tamil Nadu","risk_level":"Low","elevation":101,"rainfall":852,"population":"1.4M","flood_zones":"Vaigai River Banks, Nagalapuram","river":"Vaigai River","river_dist":2.0},"geometry":{"type":"Polygon","coordinates":[[[78.050,9.870],[78.110,9.860],[78.170,9.865],[78.220,9.885],[78.255,9.915],[78.265,9.950],[78.250,9.985],[78.215,10.005],[78.165,10.010],[78.115,10.000],[78.070,9.975],[78.045,9.945],[78.040,9.910],[78.050,9.880],[78.050,9.870]]]}},
    {"type":"Feature","properties":{"district_name":"Tiruchirappalli","state":"Tamil Nadu","risk_level":"Medium","elevation":78,"rainfall":840,"population":"0.9M","flood_zones":"Cauvery River Banks, Srirangam Island, Ariyamangalam","river":"Cauvery River","river_dist":1.2},"geometry":{"type":"Polygon","coordinates":[[[78.620,10.740],[78.680,10.730],[78.740,10.735],[78.790,10.755],[78.820,10.785],[78.825,10.820],[78.810,10.855],[78.775,10.875],[78.730,10.880],[78.680,10.870],[78.640,10.845],[78.615,10.815],[78.610,10.780],[78.620,10.755],[78.620,10.740]]]}},
    {"type":"Feature","properties":{"district_name":"Bangalore","state":"Karnataka","risk_level":"Low","elevation":920,"rainfall":970,"population":"12.3M","flood_zones":"Bellandur Lake, Varthur Lake, Hebbal Lake area","river":"Arkavathi River","river_dist":8.0},"geometry":{"type":"Polygon","coordinates":[[[77.470,12.860],[77.520,12.855],[77.570,12.860],[77.620,12.875],[77.670,12.900],[77.700,12.930],[77.720,12.970],[77.720,13.010],[77.700,13.050],[77.670,13.080],[77.620,13.100],[77.570,13.110],[77.520,13.105],[77.470,13.090],[77.430,13.060],[77.410,13.025],[77.400,12.985],[77.410,12.945],[77.430,12.910],[77.470,12.860]]]}},
    {"type":"Feature","properties":{"district_name":"Mysore","state":"Karnataka","risk_level":"Low","elevation":763,"rainfall":785,"population":"0.9M","flood_zones":"Cauvery River Banks, Krishnaraja Sagar area","river":"Cauvery River","river_dist":5.0},"geometry":{"type":"Polygon","coordinates":[[[76.540,12.200],[76.600,12.190],[76.660,12.195],[76.710,12.215],[76.745,12.245],[76.755,12.280],[76.740,12.315],[76.705,12.335],[76.660,12.340],[76.610,12.330],[76.565,12.305],[76.540,12.275],[76.530,12.240],[76.540,12.215],[76.540,12.200]]]}},
    {"type":"Feature","properties":{"district_name":"Hubli","state":"Karnataka","risk_level":"Low","elevation":672,"rainfall":680,"population":"0.9M","flood_zones":"Dharwad Low-lying areas","river":"Tungabhadra Tributary","river_dist":15.0},"geometry":{"type":"Polygon","coordinates":[[[75.060,15.280],[75.120,15.270],[75.180,15.275],[75.230,15.295],[75.260,15.325],[75.265,15.360],[75.250,15.395],[75.215,15.415],[75.170,15.420],[75.120,15.410],[75.075,15.385],[75.050,15.355],[75.045,15.320],[75.055,15.295],[75.060,15.280]]]}},
    {"type":"Feature","properties":{"district_name":"Mangalore","state":"Karnataka","risk_level":"Medium","elevation":22,"rainfall":3800,"population":"0.5M","flood_zones":"Netravati Banks, Gurupura River, Ullal, Surathkal coastal","river":"Netravati River","river_dist":1.5},"geometry":{"type":"Polygon","coordinates":[[[74.790,12.790],[74.840,12.780],[74.890,12.785],[74.930,12.805],[74.955,12.835],[74.960,12.870],[74.945,12.905],[74.910,12.925],[74.865,12.930],[74.820,12.920],[74.780,12.895],[74.760,12.865],[74.755,12.830],[74.765,12.805],[74.790,12.790]]]}},
    {"type":"Feature","properties":{"district_name":"Thiruvananthapuram","state":"Kerala","risk_level":"Medium","elevation":16,"rainfall":1835,"population":"0.9M","flood_zones":"Karamana River Banks, Pattom, Kowdiar, Veli","river":"Karamana River","river_dist":2.0},"geometry":{"type":"Polygon","coordinates":[[[76.850,8.420],[76.910,8.410],[76.970,8.415],[77.020,8.435],[77.050,8.465],[77.055,8.500],[77.040,8.535],[77.005,8.555],[76.960,8.560],[76.910,8.550],[76.865,8.525],[76.840,8.495],[76.835,8.460],[76.845,8.435],[76.850,8.420]]]}},
    {"type":"Feature","properties":{"district_name":"Kochi","state":"Kerala","risk_level":"Medium","elevation":3,"rainfall":3000,"population":"0.7M","flood_zones":"Ernakulam South, Thevara, Kumbalangi, Cherai, Fort Kochi","river":"Periyar River","river_dist":0.8},"geometry":{"type":"Polygon","coordinates":[[[76.200,9.880],[76.230,9.875],[76.270,9.880],[76.300,9.895],[76.330,9.920],[76.350,9.950],[76.360,9.985],[76.350,10.020],[76.330,10.050],[76.300,10.070],[76.260,10.080],[76.220,10.075],[76.190,10.060],[76.170,10.035],[76.160,10.005],[76.165,9.975],[76.180,9.945],[76.200,9.880]]]}},
    {"type":"Feature","properties":{"district_name":"Kozhikode","state":"Kerala","risk_level":"Medium","elevation":4,"rainfall":3266,"population":"0.6M","flood_zones":"Chaliyar River, Kallai, Azhchavattom, Beypore coastal","river":"Chaliyar River","river_dist":1.5},"geometry":{"type":"Polygon","coordinates":[[[75.740,11.180],[75.790,11.170],[75.840,11.175],[75.880,11.195],[75.905,11.225],[75.910,11.260],[75.895,11.295],[75.860,11.315],[75.815,11.320],[75.770,11.310],[75.730,11.285],[75.710,11.255],[75.705,11.220],[75.715,11.195],[75.740,11.180]]]}},
    {"type":"Feature","properties":{"district_name":"Thrissur","state":"Kerala","risk_level":"Medium","elevation":2,"rainfall":3055,"population":"0.3M","flood_zones":"Bharathapuzha Banks, Chavakkad, Kodungallur coastal, Irinjalakuda","river":"Bharathapuzha River","river_dist":4.0},"geometry":{"type":"Polygon","coordinates":[[[76.100,10.410],[76.150,10.400],[76.210,10.405],[76.260,10.425],[76.295,10.455],[76.300,10.490],[76.285,10.525],[76.250,10.545],[76.205,10.550],[76.155,10.540],[76.110,10.515],[76.085,10.485],[76.080,10.450],[76.090,10.425],[76.100,10.410]]]}},
    {"type":"Feature","properties":{"district_name":"Hyderabad","state":"Telangana","risk_level":"Low","elevation":505,"rainfall":812,"population":"9.7M","flood_zones":"Musi River Banks, Amberpet, Uppal, Sanathnagar","river":"Musi River","river_dist":2.5},"geometry":{"type":"Polygon","coordinates":[[[78.320,17.280],[78.380,17.275],[78.440,17.280],[78.500,17.300],[78.560,17.330],[78.610,17.370],[78.650,17.420],[78.670,17.480],[78.670,17.540],[78.650,17.600],[78.610,17.650],[78.560,17.690],[78.500,17.720],[78.440,17.730],[78.380,17.725],[78.320,17.710],[78.270,17.680],[78.230,17.640],[78.210,17.590],[78.200,17.530],[78.210,17.470],[78.230,17.420],[78.270,17.370],[78.320,17.280]]]}},
    {"type":"Feature","properties":{"district_name":"Warangal","state":"Telangana","risk_level":"Low","elevation":302,"rainfall":980,"population":"0.8M","flood_zones":"Bhadrakali Lake, Dharmasagar Lake area","river":"Godavari Tributary","river_dist":12.0},"geometry":{"type":"Polygon","coordinates":[[[79.510,17.930],[79.570,17.920],[79.630,17.925],[79.680,17.945],[79.710,17.975],[79.715,18.010],[79.700,18.045],[79.665,18.065],[79.620,18.070],[79.570,18.060],[79.525,18.035],[79.500,18.005],[79.495,17.970],[79.505,17.945],[79.510,17.930]]]}},
    {"type":"Feature","properties":{"district_name":"Visakhapatnam","state":"Andhra Pradesh","risk_level":"Medium","elevation":45,"rainfall":1047,"population":"2.0M","flood_zones":"Gosthani River, Bheemunipatnam coastal, Kommadi, Bhimili","river":"Gosthani River","river_dist":3.0},"geometry":{"type":"Polygon","coordinates":[[[83.100,17.550],[83.160,17.540],[83.220,17.545],[83.280,17.565],[83.320,17.595],[83.330,17.630],[83.315,17.665],[83.280,17.685],[83.235,17.690],[83.185,17.680],[83.140,17.655],[83.115,17.625],[83.105,17.590],[83.110,17.565],[83.100,17.550]]]}},
    {"type":"Feature","properties":{"district_name":"Vijayawada","state":"Andhra Pradesh","risk_level":"High","elevation":11,"rainfall":1036,"population":"1.0M","flood_zones":"Krishna River Banks, Governorpet, Patamata, Ramavarappadu","river":"Krishna River","river_dist":0.5},"geometry":{"type":"Polygon","coordinates":[[[80.570,16.460],[80.600,16.455],[80.640,16.460],[80.680,16.475],[80.710,16.500],[80.720,16.530],[80.710,16.560],[80.680,16.580],[80.640,16.590],[80.600,16.585],[80.570,16.570],[80.550,16.545],[80.540,16.515],[80.550,16.485],[80.570,16.460]]]}},
    {"type":"Feature","properties":{"district_name":"Guntur","state":"Andhra Pradesh","risk_level":"Medium","elevation":31,"rainfall":912,"population":"0.7M","flood_zones":"Krishna Delta, Nagarjuna Sagar area, Amaravati","river":"Krishna River","river_dist":8.0},"geometry":{"type":"Polygon","coordinates":[[[80.380,16.180],[80.440,16.170],[80.500,16.175],[80.550,16.195],[80.580,16.225],[80.585,16.260],[80.570,16.295],[80.535,16.315],[80.490,16.320],[80.440,16.310],[80.395,16.285],[80.370,16.255],[80.365,16.220],[80.375,16.195],[80.380,16.180]]]}},
    {"type":"Feature","properties":{"district_name":"Bhubaneswar","state":"Odisha","risk_level":"Medium","elevation":45,"rainfall":1500,"population":"0.9M","flood_zones":"Kuakhai River Banks, Daya River area, Infocity","river":"Mahanadi","river_dist":15.0},"geometry":{"type":"Polygon","coordinates":[[[85.700,20.180],[85.760,20.170],[85.820,20.175],[85.875,20.195],[85.910,20.225],[85.915,20.260],[85.900,20.295],[85.865,20.315],[85.820,20.320],[85.770,20.310],[85.725,20.285],[85.700,20.255],[85.695,20.220],[85.705,20.195],[85.700,20.180]]]}},
    {"type":"Feature","properties":{"district_name":"Cuttack","state":"Odisha","risk_level":"High","elevation":36,"rainfall":1520,"population":"0.6M","flood_zones":"Mahanadi Banks, Mangalabag, Badambadi, Chauliaganj, Dolamundai","river":"Mahanadi","river_dist":1.0},"geometry":{"type":"Polygon","coordinates":[[[85.780,20.420],[85.810,20.415],[85.840,20.420],[85.870,20.435],[85.900,20.455],[85.920,20.480],[85.920,20.510],[85.900,20.535],[85.870,20.550],[85.840,20.560],[85.810,20.555],[85.780,20.540],[85.760,20.520],[85.750,20.495],[85.755,20.470],[85.765,20.445],[85.780,20.420]]]}},
    {"type":"Feature","properties":{"district_name":"Puri","state":"Odisha","risk_level":"High","elevation":3,"rainfall":1483,"population":"0.2M","flood_zones":"Coastal Belt, Baliguali, Nuasasan, Pentakota, Grand Road area","river":"Bay of Bengal Coast","river_dist":0.5},"geometry":{"type":"Polygon","coordinates":[[[85.780,19.780],[85.810,19.775],[85.840,19.780],[85.870,19.795],[85.900,19.820],[85.920,19.850],[85.920,19.885],[85.900,19.915],[85.870,19.935],[85.840,19.945],[85.810,19.940],[85.780,19.925],[85.760,19.900],[85.750,19.870],[85.755,19.840],[85.770,19.810],[85.780,19.780]]]}},
    {"type":"Feature","properties":{"district_name":"Rourkela","state":"Odisha","risk_level":"Low","elevation":219,"rainfall":1500,"population":"0.5M","flood_zones":"Brahmani River Banks, Bondamunda","river":"Brahmani River","river_dist":3.0},"geometry":{"type":"Polygon","coordinates":[[[84.830,22.180],[84.890,22.170],[84.950,22.175],[84.995,22.195],[85.020,22.225],[85.025,22.260],[85.010,22.295],[84.975,22.315],[84.930,22.320],[84.880,22.310],[84.835,22.285],[84.810,22.255],[84.805,22.220],[84.815,22.195],[84.830,22.180]]]}},
    {"type":"Feature","properties":{"district_name":"Jaipur","state":"Rajasthan","risk_level":"Low","elevation":431,"rainfall":650,"population":"3.7M","flood_zones":"Dravyavati River, Mansagar Lake, Dhundh River area","river":"Banas River","river_dist":20.0},"geometry":{"type":"Polygon","coordinates":[[[75.680,26.800],[75.740,26.795],[75.800,26.800],[75.860,26.820],[75.910,26.850],[75.950,26.890],[75.980,26.940],[75.990,26.990],[75.980,27.040],[75.950,27.090],[75.910,27.130],[75.860,27.160],[75.800,27.170],[75.740,27.165],[75.680,27.150],[75.630,27.120],[75.600,27.080],[75.590,27.030],[75.600,26.980],[75.630,26.930],[75.680,26.800]]]}},
    {"type":"Feature","properties":{"district_name":"Jodhpur","state":"Rajasthan","risk_level":"Low","elevation":231,"rainfall":362,"population":"1.1M","flood_zones":"Kailana Lake area, Gulab Sagar","river":"Luni River","river_dist":25.0},"geometry":{"type":"Polygon","coordinates":[[[72.970,26.190],[73.030,26.180],[73.090,26.185],[73.140,26.205],[73.170,26.235],[73.175,26.270],[73.160,26.305],[73.125,26.325],[73.080,26.330],[73.030,26.320],[72.985,26.295],[72.960,26.265],[72.955,26.230],[72.965,26.205],[72.970,26.190]]]}},
    {"type":"Feature","properties":{"district_name":"Udaipur","state":"Rajasthan","risk_level":"Low","elevation":598,"rainfall":645,"population":"0.5M","flood_zones":"Lake Pichola area, Fateh Sagar, Bedach River","river":"Berach River","river_dist":3.0},"geometry":{"type":"Polygon","coordinates":[[[73.620,24.520],[73.680,24.510],[73.740,24.515],[73.790,24.535],[73.820,24.565],[73.825,24.600],[73.810,24.635],[73.775,24.655],[73.730,24.660],[73.680,24.650],[73.635,24.625],[73.610,24.595],[73.605,24.560],[73.615,24.535],[73.620,24.520]]]}},
    {"type":"Feature","properties":{"district_name":"Kota","state":"Rajasthan","risk_level":"Low","elevation":271,"rainfall":812,"population":"1.0M","flood_zones":"Chambal River Banks, Rangpur, Mahavir Nagar","river":"Chambal River","river_dist":2.0},"geometry":{"type":"Polygon","coordinates":[[[75.780,25.110],[75.840,25.100],[75.900,25.105],[75.950,25.125],[75.980,25.155],[75.985,25.190],[75.970,25.225],[75.935,25.245],[75.890,25.250],[75.840,25.240],[75.795,25.215],[75.770,25.185],[75.765,25.150],[75.775,25.125],[75.780,25.110]]]}},
    {"type":"Feature","properties":{"district_name":"Ahmedabad","state":"Gujarat","risk_level":"Low","elevation":53,"rainfall":803,"population":"7.2M","flood_zones":"Sabarmati River Banks, Vatwa, Naroda, Odhav","river":"Sabarmati River","river_dist":2.0},"geometry":{"type":"Polygon","coordinates":[[[72.420,22.900],[72.490,22.890],[72.560,22.895],[72.630,22.915],[72.690,22.945],[72.730,22.985],[72.750,23.030],[72.745,23.075],[72.720,23.115],[72.680,23.145],[72.630,23.165],[72.570,23.170],[72.510,23.160],[72.455,23.135],[72.415,23.100],[72.390,23.055],[72.385,23.010],[72.395,22.965],[72.420,22.900]]]}},
    {"type":"Feature","properties":{"district_name":"Surat","state":"Gujarat","risk_level":"Medium","elevation":13,"rainfall":1200,"population":"4.5M","flood_zones":"Tapi River Banks, Adajan, Rander, Katargam, Udhna","river":"Tapi River","river_dist":1.5},"geometry":{"type":"Polygon","coordinates":[[[72.780,21.140],[72.820,21.135],[72.860,21.140],[72.900,21.155],[72.940,21.175],[72.970,21.200],[72.990,21.235],[72.990,21.270],[72.970,21.305],[72.940,21.330],[72.900,21.345],[72.860,21.350],[72.820,21.345],[72.780,21.325],[72.760,21.300],[72.750,21.265],[72.760,21.230],[72.780,21.140]]]}},
    {"type":"Feature","properties":{"district_name":"Vadodara","state":"Gujarat","risk_level":"Low","elevation":37,"rainfall":932,"population":"2.1M","flood_zones":"Vishwamitri River Banks, Padra, Chhani","river":"Vishwamitri River","river_dist":1.0},"geometry":{"type":"Polygon","coordinates":[[[73.100,22.220],[73.160,22.210],[73.220,22.215],[73.275,22.235],[73.305,22.265],[73.310,22.300],[73.295,22.335],[73.260,22.355],[73.215,22.360],[73.165,22.350],[73.120,22.325],[73.095,22.295],[73.090,22.260],[73.100,22.235],[73.100,22.220]]]}},
    {"type":"Feature","properties":{"district_name":"Rajkot","state":"Gujarat","risk_level":"Low","elevation":138,"rainfall":553,"population":"1.4M","flood_zones":"Aji River Banks, Nyari Dam area","river":"Aji River","river_dist":2.5},"geometry":{"type":"Polygon","coordinates":[[[70.720,22.200],[70.780,22.190],[70.840,22.195],[70.895,22.215],[70.925,22.245],[70.930,22.280],[70.915,22.315],[70.880,22.335],[70.835,22.340],[70.785,22.330],[70.740,22.305],[70.715,22.275],[70.710,22.240],[70.720,22.215],[70.720,22.200]]]}},
    {"type":"Feature","properties":{"district_name":"Delhi","state":"Delhi","risk_level":"Medium","elevation":216,"rainfall":797,"population":"32.9M","flood_zones":"Yamuna Floodplain, Burari, Mustafabad, Wazirabad, Usmanpur, Geeta Colony","river":"Yamuna River","river_dist":3.5},"geometry":{"type":"Polygon","coordinates":[[[76.950,28.480],[77.010,28.475],[77.070,28.480],[77.130,28.500],[77.190,28.530],[77.250,28.570],[77.310,28.620],[77.350,28.670],[77.370,28.730],[77.370,28.790],[77.350,28.850],[77.310,28.900],[77.260,28.940],[77.200,28.960],[77.140,28.970],[77.080,28.960],[77.020,28.940],[76.970,28.910],[76.930,28.870],[76.900,28.820],[76.890,28.760],[76.890,28.700],[76.900,28.640],[76.920,28.580],[76.940,28.530],[76.950,28.480]]]}},
    {"type":"Feature","properties":{"district_name":"Gurugram","state":"Haryana","risk_level":"Low","elevation":217,"rainfall":620,"population":"1.7M","flood_zones":"Badshahpur drain, Saraswati river area, Khandsa","river":"Sahibi River","river_dist":5.0},"geometry":{"type":"Polygon","coordinates":[[[76.970,28.350],[77.030,28.340],[77.090,28.345],[77.140,28.365],[77.170,28.395],[77.175,28.430],[77.160,28.465],[77.125,28.485],[77.080,28.490],[77.030,28.480],[76.985,28.455],[76.960,28.425],[76.955,28.390],[76.965,28.365],[76.970,28.350]]]}},
    {"type":"Feature","properties":{"district_name":"Faridabad","state":"Haryana","risk_level":"Low","elevation":198,"rainfall":620,"population":"1.4M","flood_zones":"Yamuna Banks, Ballabhgarh, NIT area","river":"Yamuna River","river_dist":4.0},"geometry":{"type":"Polygon","coordinates":[[[77.250,28.330],[77.310,28.320],[77.370,28.325],[77.420,28.345],[77.450,28.375],[77.455,28.410],[77.440,28.445],[77.405,28.465],[77.360,28.470],[77.310,28.460],[77.265,28.435],[77.240,28.405],[77.235,28.370],[77.245,28.345],[77.250,28.330]]]}},
    {"type":"Feature","properties":{"district_name":"Lucknow","state":"Uttar Pradesh","risk_level":"Medium","elevation":123,"rainfall":1000,"population":"3.4M","flood_zones":"Gomti River Banks, Chinhat, Alambagh, Indiranagar low areas","river":"Gomti River","river_dist":2.0},"geometry":{"type":"Polygon","coordinates":[[[80.820,26.750],[80.870,26.745],[80.920,26.750],[80.970,26.765],[81.010,26.790],[81.040,26.820],[81.060,26.860],[81.060,26.900],[81.040,26.940],[81.010,26.970],[80.970,26.990],[80.920,27.000],[80.870,26.995],[80.820,26.980],[80.780,26.950],[80.760,26.915],[80.750,26.875],[80.760,26.835],[80.780,26.800],[80.820,26.750]]]}},
    {"type":"Feature","properties":{"district_name":"Kanpur","state":"Uttar Pradesh","risk_level":"Medium","elevation":126,"rainfall":848,"population":"3.0M","flood_zones":"Ganges Banks, Benajhabar, Armapur, Govind Nagar","river":"Ganges","river_dist":1.5},"geometry":{"type":"Polygon","coordinates":[[[80.200,26.300],[80.260,26.290],[80.320,26.295],[80.380,26.315],[80.420,26.345],[80.430,26.380],[80.415,26.415],[80.375,26.435],[80.325,26.440],[80.270,26.430],[80.220,26.405],[80.195,26.375],[80.190,26.340],[80.200,26.315],[80.200,26.300]]]}},
    {"type":"Feature","properties":{"district_name":"Varanasi","state":"Uttar Pradesh","risk_level":"Medium","elevation":80,"rainfall":1050,"population":"1.4M","flood_zones":"Ganga Ghats, Sarnath, Shivpur, Pahadia, Benia Bagh","river":"Ganges","river_dist":0.8},"geometry":{"type":"Polygon","coordinates":[[[82.920,25.250],[82.970,25.245],[83.020,25.250],[83.070,25.270],[83.110,25.300],[83.140,25.340],[83.150,25.380],[83.140,25.420],[83.110,25.460],[83.070,25.490],[83.020,25.510],[82.970,25.515],[82.920,25.505],[82.880,25.480],[82.850,25.445],[82.840,25.405],[82.850,25.365],[82.880,25.325],[82.920,25.250]]]}},
    {"type":"Feature","properties":{"district_name":"Agra","state":"Uttar Pradesh","risk_level":"Low","elevation":169,"rainfall":760,"population":"1.7M","flood_zones":"Yamuna Banks, Mantola, Lohamandi, Taj Nagri","river":"Yamuna River","river_dist":2.5},"geometry":{"type":"Polygon","coordinates":[[[77.900,27.100],[77.960,27.090],[78.020,27.095],[78.075,27.115],[78.105,27.145],[78.110,27.180],[78.095,27.215],[78.060,27.235],[78.015,27.240],[77.965,27.230],[77.920,27.205],[77.895,27.175],[77.890,27.140],[77.900,27.115],[77.900,27.100]]]}},
    {"type":"Feature","properties":{"district_name":"Allahabad","state":"Uttar Pradesh","risk_level":"Medium","elevation":98,"rainfall":1027,"population":"1.2M","flood_zones":"Sangam Area, Daraganj, Salori, Jhunsi floodplain","river":"Ganges-Yamuna confluence","river_dist":1.0},"geometry":{"type":"Polygon","coordinates":[[[81.700,25.320],[81.760,25.310],[81.820,25.315],[81.875,25.335],[81.905,25.365],[81.910,25.400],[81.895,25.435],[81.860,25.455],[81.815,25.460],[81.765,25.450],[81.720,25.425],[81.695,25.395],[81.690,25.360],[81.700,25.335],[81.700,25.320]]]}},
    {"type":"Feature","properties":{"district_name":"Indore","state":"Madhya Pradesh","risk_level":"Low","elevation":553,"rainfall":938,"population":"2.2M","flood_zones":"Khan River Banks, Sirpur Lake, Bilawali area","river":"Khan River","river_dist":2.5},"geometry":{"type":"Polygon","coordinates":[[[75.700,22.590],[75.770,22.580],[75.840,22.585],[75.900,22.605],[75.940,22.635],[75.950,22.670],[75.935,22.705],[75.895,22.725],[75.845,22.730],[75.790,22.720],[75.740,22.695],[75.710,22.665],[75.700,22.630],[75.705,22.600],[75.700,22.590]]]}},
    {"type":"Feature","properties":{"district_name":"Bhopal","state":"Madhya Pradesh","risk_level":"Low","elevation":500,"rainfall":1146,"population":"1.8M","flood_zones":"Upper Lake Banks, Halali River, Nishantpura, Bag Sewania","river":"Betwa River","river_dist":10.0},"geometry":{"type":"Polygon","coordinates":[[[77.200,23.100],[77.270,23.090],[77.340,23.095],[77.400,23.115],[77.440,23.145],[77.450,23.180],[77.435,23.215],[77.395,23.235],[77.345,23.240],[77.290,23.230],[77.240,23.205],[77.210,23.175],[77.200,23.140],[77.205,23.115],[77.200,23.100]]]}},
    {"type":"Feature","properties":{"district_name":"Jabalpur","state":"Madhya Pradesh","risk_level":"Low","elevation":393,"rainfall":1348,"population":"1.3M","flood_zones":"Narmada Banks, Garha, Dumna, Tilwara Ghat","river":"Narmada River","river_dist":5.0},"geometry":{"type":"Polygon","coordinates":[[[79.880,23.080],[79.940,23.070],[80.000,23.075],[80.055,23.095],[80.085,23.125],[80.090,23.160],[80.075,23.195],[80.040,23.215],[79.995,23.220],[79.945,23.210],[79.900,23.185],[79.875,23.155],[79.870,23.120],[79.880,23.095],[79.880,23.080]]]}},
    {"type":"Feature","properties":{"district_name":"Gwalior","state":"Madhya Pradesh","risk_level":"Low","elevation":197,"rainfall":792,"population":"1.1M","flood_zones":"Sank River, Morar area, Lashkar low-lying zones","river":"Chambal River","river_dist":20.0},"geometry":{"type":"Polygon","coordinates":[[[78.070,26.160],[78.130,26.150],[78.190,26.155],[78.245,26.175],[78.275,26.205],[78.280,26.240],[78.265,26.275],[78.230,26.295],[78.185,26.300],[78.135,26.290],[78.090,26.265],[78.065,26.235],[78.060,26.200],[78.070,26.175],[78.070,26.160]]]}},
    {"type":"Feature","properties":{"district_name":"Ranchi","state":"Jharkhand","risk_level":"Low","elevation":651,"rainfall":1430,"population":"1.1M","flood_zones":"Subarnarekha River, Harmu River, Tupudana area","river":"Subarnarekha River","river_dist":8.0},"geometry":{"type":"Polygon","coordinates":[[[85.240,23.260],[85.300,23.250],[85.360,23.255],[85.415,23.275],[85.445,23.305],[85.450,23.340],[85.435,23.375],[85.400,23.395],[85.355,23.400],[85.305,23.390],[85.260,23.365],[85.235,23.335],[85.230,23.300],[85.240,23.275],[85.240,23.260]]]}},
    {"type":"Feature","properties":{"district_name":"Jamshedpur","state":"Jharkhand","risk_level":"Medium","elevation":135,"rainfall":1400,"population":"0.6M","flood_zones":"Subarnarekha-Kharkai confluence, Jugsalai, Mango area","river":"Subarnarekha River","river_dist":2.0},"geometry":{"type":"Polygon","coordinates":[[[86.110,22.740],[86.170,22.730],[86.230,22.735],[86.280,22.755],[86.310,22.785],[86.315,22.820],[86.300,22.855],[86.265,22.875],[86.220,22.880],[86.170,22.870],[86.125,22.845],[86.100,22.815],[86.095,22.780],[86.105,22.755],[86.110,22.740]]]}},
    {"type":"Feature","properties":{"district_name":"Dhanbad","state":"Jharkhand","risk_level":"Medium","elevation":228,"rainfall":1250,"population":"1.2M","flood_zones":"Damodar River Banks, Sindri, Jharia, Katras","river":"Damodar River","river_dist":5.0},"geometry":{"type":"Polygon","coordinates":[[[86.380,23.680],[86.440,23.670],[86.500,23.675],[86.550,23.695],[86.580,23.725],[86.585,23.760],[86.570,23.795],[86.535,23.815],[86.490,23.820],[86.440,23.810],[86.395,23.785],[86.370,23.755],[86.365,23.720],[86.375,23.695],[86.380,23.680]]]}},
    {"type":"Feature","properties":{"district_name":"Raipur","state":"Chhattisgarh","risk_level":"Medium","elevation":298,"rainfall":1300,"population":"1.0M","flood_zones":"Kharun River Banks, Mahanadi area, Tilda, Abhanpur","river":"Mahanadi River","river_dist":6.0},"geometry":{"type":"Polygon","coordinates":[[[81.580,21.180],[81.640,21.170],[81.700,21.175],[81.755,21.195],[81.785,21.225],[81.790,21.260],[81.775,21.295],[81.740,21.315],[81.695,21.320],[81.645,21.310],[81.600,21.285],[81.575,21.255],[81.570,21.220],[81.580,21.195],[81.580,21.180]]]}},
    {"type":"Feature","properties":{"district_name":"Bilaspur","state":"Chhattisgarh","risk_level":"Medium","elevation":264,"rainfall":1200,"population":"0.4M","flood_zones":"Arpa River Banks, Sarkanda, Sakri, Masturi","river":"Arpa River","river_dist":3.0},"geometry":{"type":"Polygon","coordinates":[[[82.090,22.020],[82.150,22.010],[82.210,22.015],[82.265,22.035],[82.295,22.065],[82.300,22.100],[82.285,22.135],[82.250,22.155],[82.205,22.160],[82.155,22.150],[82.110,22.125],[82.085,22.095],[82.080,22.060],[82.090,22.035],[82.090,22.020]]]}},
    {"type":"Feature","properties":{"district_name":"Amritsar","state":"Punjab","risk_level":"Low","elevation":234,"rainfall":680,"population":"1.2M","flood_zones":"Beas River proximity, Ram Tirath area","river":"Beas River","river_dist":12.0},"geometry":{"type":"Polygon","coordinates":[[[74.760,31.580],[74.820,31.570],[74.880,31.575],[74.930,31.595],[74.960,31.625],[74.965,31.660],[74.950,31.695],[74.915,31.715],[74.870,31.720],[74.820,31.710],[74.775,31.685],[74.750,31.655],[74.745,31.620],[74.755,31.595],[74.760,31.580]]]}},
    {"type":"Feature","properties":{"district_name":"Ludhiana","state":"Punjab","risk_level":"Low","elevation":244,"rainfall":720,"population":"1.6M","flood_zones":"Sutlej River Banks, Sahnewal, Dhandari Kalan","river":"Sutlej River","river_dist":5.0},"geometry":{"type":"Polygon","coordinates":[[[75.720,30.820],[75.780,30.810],[75.840,30.815],[75.895,30.835],[75.925,30.865],[75.930,30.900],[75.915,30.935],[75.880,30.955],[75.835,30.960],[75.785,30.950],[75.740,30.925],[75.715,30.895],[75.710,30.860],[75.720,30.835],[75.720,30.820]]]}},
    {"type":"Feature","properties":{"district_name":"Jalandhar","state":"Punjab","risk_level":"Low","elevation":228,"rainfall":660,"population":"0.9M","flood_zones":"Kali Bein, Sutlej proximity, Nakodar area","river":"Beas River","river_dist":8.0},"geometry":{"type":"Polygon","coordinates":[[[75.480,31.270],[75.540,31.260],[75.600,31.265],[75.650,31.285],[75.680,31.315],[75.685,31.350],[75.670,31.385],[75.635,31.405],[75.590,31.410],[75.540,31.400],[75.495,31.375],[75.470,31.345],[75.465,31.310],[75.475,31.285],[75.480,31.270]]]}},
    {"type":"Feature","properties":{"district_name":"Srinagar","state":"J&K","risk_level":"Medium","elevation":1585,"rainfall":725,"population":"1.0M","flood_zones":"Jhelum River Banks, Dal Lake, Flood Channel area, Rajbagh","river":"Jhelum River","river_dist":0.5},"geometry":{"type":"Polygon","coordinates":[[[74.720,34.010],[74.780,34.000],[74.840,34.005],[74.895,34.025],[74.925,34.055],[74.930,34.090],[74.915,34.125],[74.880,34.145],[74.835,34.150],[74.785,34.140],[74.740,34.115],[74.715,34.085],[74.710,34.050],[74.720,34.025],[74.720,34.010]]]}},
    {"type":"Feature","properties":{"district_name":"Jammu","state":"J&K","risk_level":"Low","elevation":327,"rainfall":1075,"population":"0.6M","flood_zones":"Tawi River Banks, Sidhra, Gangyal area","river":"Tawi River","river_dist":1.5},"geometry":{"type":"Polygon","coordinates":[[[74.780,32.650],[74.840,32.640],[74.900,32.645],[74.950,32.665],[74.980,32.695],[74.985,32.730],[74.970,32.765],[74.935,32.785],[74.890,32.790],[74.840,32.780],[74.795,32.755],[74.770,32.725],[74.765,32.690],[74.775,32.665],[74.780,32.650]]]}},
    {"type":"Feature","properties":{"district_name":"Dehradun","state":"Uttarakhand","risk_level":"Medium","elevation":640,"rainfall":2073,"population":"0.7M","flood_zones":"Rispana River, Bindal River, Doiwala, Rishikesh vicinity","river":"Ganges","river_dist":25.0},"geometry":{"type":"Polygon","coordinates":[[[77.890,30.210],[77.960,30.200],[78.030,30.205],[78.090,30.225],[78.125,30.255],[78.130,30.290],[78.115,30.325],[78.075,30.345],[78.025,30.350],[77.970,30.340],[77.920,30.315],[77.890,30.285],[77.880,30.250],[77.885,30.225],[77.890,30.210]]]}},
    {"type":"Feature","properties":{"district_name":"Haridwar","state":"Uttarakhand","risk_level":"Medium","elevation":314,"rainfall":1810,"population":"0.3M","flood_zones":"Ganges Floodplain, Bhimgoda, Kankhal, Ranipur","river":"Ganges","river_dist":0.5},"geometry":{"type":"Polygon","coordinates":[[[78.020,29.870],[78.080,29.860],[78.140,29.865],[78.195,29.885],[78.225,29.915],[78.230,29.950],[78.215,29.985],[78.180,30.005],[78.135,30.010],[78.085,30.000],[78.040,29.975],[78.015,29.945],[78.010,29.910],[78.020,29.885],[78.020,29.870]]]}},
    {"type":"Feature","properties":{"district_name":"Imphal","state":"Manipur","risk_level":"Medium","elevation":786,"rainfall":1570,"population":"0.4M","flood_zones":"Imphal River, Nambul River, Moirang, Bishnupur","river":"Imphal River","river_dist":2.0},"geometry":{"type":"Polygon","coordinates":[[[93.850,24.720],[93.910,24.710],[93.970,24.715],[94.020,24.735],[94.050,24.765],[94.055,24.800],[94.040,24.835],[94.005,24.855],[93.960,24.860],[93.910,24.850],[93.865,24.825],[93.840,24.795],[93.835,24.760],[93.845,24.735],[93.850,24.720]]]}},
    {"type":"Feature","properties":{"district_name":"Shillong","state":"Meghalaya","risk_level":"Medium","elevation":1496,"rainfall":2375,"population":"0.4M","flood_zones":"Umkhrah River, Umiam Lake, Mawlai, Nongthymmai","river":"Umkhrah River","river_dist":3.0},"geometry":{"type":"Polygon","coordinates":[[[91.820,25.480],[91.880,25.470],[91.940,25.475],[91.990,25.495],[92.020,25.525],[92.025,25.560],[92.010,25.595],[91.975,25.615],[91.930,25.620],[91.880,25.610],[91.835,25.585],[91.810,25.555],[91.805,25.520],[91.815,25.495],[91.820,25.480]]]}},
    {"type":"Feature","properties":{"district_name":"Aizawl","state":"Mizoram","risk_level":"Medium","elevation":1132,"rainfall":2500,"population":"0.3M","flood_zones":"Tlawng River vicinity, Tuikum, Thakthing","river":"Tlawng River","river_dist":5.0},"geometry":{"type":"Polygon","coordinates":[[[92.660,23.680],[92.720,23.670],[92.780,23.675],[92.830,23.695],[92.860,23.725],[92.865,23.760],[92.850,23.795],[92.815,23.815],[92.770,23.820],[92.720,23.810],[92.675,23.785],[92.650,23.755],[92.645,23.720],[92.655,23.695],[92.660,23.680]]]}},
    {"type":"Feature","properties":{"district_name":"Agartala","state":"Tripura","risk_level":"Medium","elevation":13,"rainfall":2100,"population":"0.5M","flood_zones":"Howrah River Banks, Gomati River area, Bishalgarh","river":"Howrah River","river_dist":2.0},"geometry":{"type":"Polygon","coordinates":[[[91.220,23.750],[91.280,23.740],[91.340,23.745],[91.390,23.765],[91.420,23.795],[91.425,23.830],[91.410,23.865],[91.375,23.885],[91.330,23.890],[91.280,23.880],[91.235,23.855],[91.210,23.825],[91.205,23.790],[91.215,23.765],[91.220,23.750]]]}},
    {"type":"Feature","properties":{"district_name":"Kohima","state":"Nagaland","risk_level":"Medium","elevation":1444,"rainfall":1700,"population":"0.1M","flood_zones":"Dzuza River, Dhobikhola, Zubza area","river":"Dzuza River","river_dist":4.0},"geometry":{"type":"Polygon","coordinates":[[[94.080,25.620],[94.130,25.610],[94.180,25.615],[94.225,25.635],[94.250,25.665],[94.255,25.700],[94.240,25.735],[94.205,25.755],[94.160,25.760],[94.110,25.750],[94.065,25.725],[94.040,25.695],[94.035,25.660],[94.045,25.635],[94.080,25.620]]]}},
    {"type":"Feature","properties":{"district_name":"Itanagar","state":"Arunachal Pradesh","risk_level":"Medium","elevation":320,"rainfall":3000,"population":"0.1M","flood_zones":"Dikrong River, Papum River Banks, Naharlagun","river":"Dikrong River","river_dist":3.0},"geometry":{"type":"Polygon","coordinates":[[[93.580,27.040],[93.630,27.030],[93.680,27.035],[93.725,27.055],[93.750,27.085],[93.755,27.120],[93.740,27.155],[93.705,27.175],[93.660,27.180],[93.610,27.170],[93.565,27.145],[93.540,27.115],[93.535,27.080],[93.545,27.055],[93.580,27.040]]]}},
    {"type":"Feature","properties":{"district_name":"Gangtok","state":"Sikkim","risk_level":"Medium","elevation":1650,"rainfall":3500,"population":"0.1M","flood_zones":"Teesta River proximity, Ranipool, Singtam","river":"Teesta River","river_dist":8.0},"geometry":{"type":"Polygon","coordinates":[[[88.570,27.280],[88.620,27.270],[88.670,27.275],[88.715,27.295],[88.740,27.325],[88.745,27.360],[88.730,27.395],[88.695,27.415],[88.650,27.420],[88.600,27.410],[88.555,27.385],[88.530,27.355],[88.525,27.320],[88.535,27.295],[88.570,27.280]]]}},
    {"type":"Feature","properties":{"district_name":"Panaji","state":"Goa","risk_level":"Medium","elevation":7,"rainfall":2932,"population":"0.1M","flood_zones":"Mandovi River Banks, Altinho, Taleigao, Merces","river":"Mandovi River","river_dist":1.0},"geometry":{"type":"Polygon","coordinates":[[[73.790,15.390],[73.840,15.380],[73.890,15.385],[73.930,15.405],[73.955,15.435],[73.960,15.470],[73.945,15.505],[73.910,15.525],[73.865,15.530],[73.815,15.520],[73.770,15.495],[73.745,15.465],[73.740,15.430],[73.750,15.405],[73.790,15.390]]]}},
    {"type":"Feature","properties":{"district_name":"Puducherry","state":"Puducherry","risk_level":"Medium","elevation":6,"rainfall":1377,"population":"0.2M","flood_zones":"Gingee River, Coastal strip, Orleanpet, Ariyankuppam","river":"Gingee River","river_dist":2.0},"geometry":{"type":"Polygon","coordinates":[[[79.780,11.880],[79.830,11.870],[79.880,11.875],[79.920,11.895],[79.945,11.925],[79.950,11.960],[79.935,11.995],[79.900,12.015],[79.855,12.020],[79.805,12.010],[79.760,11.985],[79.735,11.955],[79.730,11.920],[79.740,11.895],[79.780,11.880]]]}},
    {"type":"Feature","properties":{"district_name":"Chandigarh","state":"Chandigarh","risk_level":"Low","elevation":321,"rainfall":1100,"population":"1.1M","flood_zones":"Sukhna Lake area, Patiala-Ki-Rao, Sector 25 low zone","river":"Ghaggar River","river_dist":10.0},"geometry":{"type":"Polygon","coordinates":[[[76.720,30.660],[76.780,30.650],[76.840,30.655],[76.895,30.675],[76.925,30.705],[76.930,30.740],[76.915,30.775],[76.880,30.795],[76.835,30.800],[76.785,30.790],[76.740,30.765],[76.715,30.735],[76.710,30.700],[76.720,30.675],[76.720,30.660]]]}}
  ]
}
