{
  "type": "FeatureCollection",
  "features": [
    {
      "type": "Feature",
      "properties": {
        "district_name": "Mumbai",
        "state": "Maharashtra",
        "taluka": "Mumbai City",
        "risk_level": "High",
        "elevation": 14,
        "rainfall": 2400,
        "population": "12.4M",
        "flood_zones": "Dharavi, Kurla, Chembur, Malad, Andheri",
        "river": "Mithi River",
        "river_dist": 0.5
      },
      "geometry": {
        "type": "Polygon",
        "coordinates": [[[72.7758,18.8920],[72.8200,18.8750],[72.8600,18.8820],[72.9100,18.9200],[72.9500,18.9800],[72.9700,19.0400],[72.9800,19.1000],[72.9700,19.1600],[72.9400,19.2200],[72.9000,19.2600],[72.8500,19.2800],[72.8100,19.2700],[72.7800,19.2400],[72.7600,19.2000],[72.7500,19.1500],[72.7550,19.1000],[72.7600,19.0500],[72.7650,19.0000],[72.7700,18.9500],[72.7758,18.8920]]]
      }
    },
    {
      "type": "Feature",
      "properties": {
        "district_name": "Kolhapur",
        "state": "Maharashtra",
        "taluka": "Kolhapur City",
        "risk_level": "High",
        "elevation": 569,
        "rainfall": 1016,
        "population": "0.5M",
        "flood_zones": "Panchganga River Banks, Rajaram Nagar, Shivaji Peth, Kasba Bawada",
        "river": "Panchganga River",
        "river_dist": 0.3
      },
      "geometry": {
        "type": "Polygon",
        "coordinates": [[[74.1800,16.6300],[74.2050,16.6250],[74.2200,16.6300],[74.2400,16.6450],[74.2600,16.6600],[74.2800,16.6700],[74.3000,16.6800],[74.3100,16.6950],[74.3100,16.7100],[74.3000,16.7250],[74.2800,16.7350],[74.2600,16.7400],[74.2350,16.7350],[74.2100,16.7250],[74.1950,16.7100],[74.1850,16.6950],[74.1750,16.6800],[74.1700,16.6600],[74.1750,16.6450],[74.1800,16.6300]]]
      }
    },
    {
      "type": "Feature",
      "properties": {
        "district_name": "Sangli",
        "state": "Maharashtra",
        "taluka": "Sangli",
        "risk_level": "High",
        "elevation": 548,
        "rainfall": 780,
        "population": "0.6M",
        "flood_zones": "Krishna River Banks, Miraj, Kupwad",
        "river": "Krishna River",
        "river_dist": 0.2
      },
      "geometry": {
        "type": "Polygon",
        "coordinates": [[[74.5200,16.8300],[74.5500,16.8200],[74.5800,16.8300],[74.6100,16.8500],[74.6300,16.8700],[74.6400,16.8950],[74.6350,16.9200],[74.6100,16.9350],[74.5800,16.9400],[74.5500,16.9350],[74.5200,16.9200],[74.5050,16.9000],[74.5000,16.8750],[74.5050,16.8500],[74.5200,16.8300]]]
      }
    },
    {
      "type": "Feature",
      "properties": {
        "district_name": "Patna",
        "state": "Bihar",
        "taluka": "Patna City",
        "risk_level": "High",
        "elevation": 53,
        "rainfall": 1100,
        "population": "2.0M",
        "flood_zones": "Digha Ghat, Gandhi Maidan Area, Rajendra Nagar, Kadamkuan",
        "river": "Ganges",
        "river_dist": 0.8
      },
      "geometry": {
        "type": "Polygon",
        "coordinates": [[[85.0500,25.5600],[85.1000,25.5500],[85.1500,25.5520],[85.2000,25.5580],[85.2500,25.5700],[85.2800,25.5900],[85.3000,25.6100],[85.3100,25.6300],[85.3000,25.6500],[85.2800,25.6600],[85.2500,25.6650],[85.2000,25.6600],[85.1500,25.6550],[85.1000,25.6400],[85.0600,25.6200],[85.0400,25.6000],[85.0350,25.5800],[85.0500,25.5600]]]
      }
    },
    {
      "type": "Feature",
      "properties": {
        "district_name": "Guwahati",
        "state": "Assam",
        "taluka": "Kamrup Metro",
        "risk_level": "High",
        "elevation": 54,
        "rainfall": 2800,
        "population": "1.0M",
        "flood_zones": "Bharalumukh, Uzanbazar, Panbazar, Jalukbari",
        "river": "Brahmaputra",
        "river_dist": 1.5
      },
      "geometry": {
        "type": "Polygon",
        "coordinates": [[[91.6200,26.0800],[91.6600,26.0750],[91.7000,26.0800],[91.7400,26.0950],[91.7700,26.1100],[91.8000,26.1300],[91.8200,26.1600],[91.8100,26.1900],[91.7800,26.2100],[91.7400,26.2200],[91.7000,26.2150],[91.6600,26.2000],[91.6300,26.1800],[91.6100,26.1500],[91.6050,26.1200],[91.6150,26.1000],[91.6200,26.0800]]]
      }
    },
    {
      "type": "Feature",
      "properties": {
        "district_name": "Kolkata",
        "state": "West Bengal",
        "taluka": "Kolkata",
        "risk_level": "High",
        "elevation": 9,
        "rainfall": 1600,
        "population": "14.0M",
        "flood_zones": "Garden Reach, Watgunge, Chetla, Khidirpur",
        "river": "Hooghly River",
        "river_dist": 2.0
      },
      "geometry": {
        "type": "Polygon",
        "coordinates": [[[88.2800,22.4800],[88.3100,22.4750],[88.3400,22.4800],[88.3800,22.4950],[88.4200,22.5200],[88.4500,22.5500],[88.4600,22.5900],[88.4600,22.6300],[88.4500,22.6700],[88.4200,22.7000],[88.3800,22.7200],[88.3400,22.7300],[88.3000,22.7200],[88.2700,22.7000],[88.2500,22.6700],[88.2400,22.6300],[88.2400,22.5900],[88.2500,22.5500],[88.2700,22.5200],[88.2800,22.4800]]]
      }
    },
    {
      "type": "Feature",
      "properties": {
        "district_name": "Cuttack",
        "state": "Odisha",
        "taluka": "Cuttack City",
        "risk_level": "High",
        "elevation": 36,
        "rainfall": 1520,
        "population": "0.6M",
        "flood_zones": "Mangalabag, Badambadi, Chauliaganj, Dolamundai",
        "river": "Mahanadi",
        "river_dist": 1.0
      },
      "geometry": {
        "type": "Polygon",
        "coordinates": [[[85.7800,20.4200],[85.8100,20.4150],[85.8400,20.4200],[85.8700,20.4350],[85.9000,20.4550],[85.9200,20.4800],[85.9200,20.5100],[85.9000,20.5350],[85.8700,20.5500],[85.8400,20.5600],[85.8100,20.5550],[85.7800,20.5400],[85.7600,20.5200],[85.7500,20.4950],[85.7550,20.4700],[85.7650,20.4450],[85.7800,20.4200]]]
      }
    },
    {
      "type": "Feature",
      "properties": {
        "district_name": "Vijayawada",
        "state": "Andhra Pradesh",
        "taluka": "Vijayawada",
        "risk_level": "High",
        "elevation": 11,
        "rainfall": 1036,
        "population": "1.0M",
        "flood_zones": "Krishna River Banks, Governorpet, Patamata",
        "river": "Krishna River",
        "river_dist": 0.5
      },
      "geometry": {
        "type": "Polygon",
        "coordinates": [[[80.5700,16.4600],[80.6000,16.4550],[80.6400,16.4600],[80.6800,16.4750],[80.7100,16.5000],[80.7200,16.5300],[80.7100,16.5600],[80.6800,16.5800],[80.6400,16.5900],[80.6000,16.5850],[80.5700,16.5700],[80.5500,16.5450],[80.5400,16.5150],[80.5500,16.4850],[80.5700,16.4600]]]
      }
    },
    {
      "type": "Feature",
      "properties": {
        "district_name": "Puri",
        "state": "Odisha",
        "taluka": "Puri",
        "risk_level": "High",
        "elevation": 3,
        "rainfall": 1483,
        "population": "0.2M",
        "flood_zones": "Coastal Area, Baliguali, Nuasasan",
        "river": "Bay of Bengal Coast",
        "river_dist": 0.5
      },
      "geometry": {
        "type": "Polygon",
        "coordinates": [[[85.7800,19.7800],[85.8100,19.7750],[85.8400,19.7800],[85.8700,19.7950],[85.9000,19.8200],[85.9200,19.8500],[85.9200,19.8850],[85.9000,19.9150],[85.8700,19.9350],[85.8400,19.9450],[85.8100,19.9400],[85.7800,19.9250],[85.7600,19.9000],[85.7500,19.8700],[85.7550,19.8400],[85.7700,19.8100],[85.7800,19.7800]]]
      }
    },
    {
      "type": "Feature",
      "properties": {
        "district_name": "Surat",
        "state": "Gujarat",
        "taluka": "Surat City",
        "risk_level": "Medium",
        "elevation": 13,
        "rainfall": 1200,
        "population": "4.5M",
        "flood_zones": "Adajan, Rander, Katargam",
        "river": "Tapi River",
        "river_dist": 1.5
      },
      "geometry": {
        "type": "Polygon",
        "coordinates": [[[72.7800,21.1400],[72.8200,21.1350],[72.8600,21.1400],[72.9000,21.1550],[72.9400,21.1750],[72.9700,21.2000],[72.9900,21.2350],[72.9900,21.2700],[72.9700,21.3050],[72.9400,21.3300],[72.9000,21.3450],[72.8600,21.3500],[72.8200,21.3450],[72.7800,21.3250],[72.7600,21.3000],[72.7500,21.2650],[72.7600,21.2300],[72.7800,21.1400]]]
      }
    },
    {
      "type": "Feature",
      "properties": {
        "district_name": "Chennai",
        "state": "Tamil Nadu",
        "taluka": "Chennai",
        "risk_level": "Medium",
        "elevation": 7,
        "rainfall": 1400,
        "population": "7.1M",
        "flood_zones": "Adyar River Area, Cooum River Banks, Velachery, Tambaram",
        "river": "Adyar River",
        "river_dist": 1.0
      },
      "geometry": {
        "type": "Polygon",
        "coordinates": [[[80.1700,12.9500],[80.2000,12.9450],[80.2400,12.9500],[80.2800,12.9650],[80.3100,12.9900],[80.3300,13.0200],[80.3400,13.0550],[80.3400,13.0900],[80.3200,13.1200],[80.2900,13.1400],[80.2500,13.1500],[80.2100,13.1450],[80.1800,13.1300],[80.1600,13.1050],[80.1500,13.0700],[80.1550,13.0350],[80.1700,12.9500]]]
      }
    },
    {
      "type": "Feature",
      "properties": {
        "district_name": "Kochi",
        "state": "Kerala",
        "taluka": "Ernakulam",
        "risk_level": "Medium",
        "elevation": 3,
        "rainfall": 3000,
        "population": "0.7M",
        "flood_zones": "Ernakulam South, Thevara, Kumbalangi",
        "river": "Periyar River",
        "river_dist": 0.8
      },
      "geometry": {
        "type": "Polygon",
        "coordinates": [[[76.2000,9.8800],[76.2300,9.8750],[76.2700,9.8800],[76.3000,9.8950],[76.3300,9.9200],[76.3500,9.9500],[76.3600,9.9850],[76.3500,10.0200],[76.3300,10.0500],[76.3000,10.0700],[76.2600,10.0800],[76.2200,10.0750],[76.1900,10.0600],[76.1700,10.0350],[76.1600,10.0050],[76.1650,9.9750],[76.1800,9.9450],[76.2000,9.8800]]]
      }
    },
    {
      "type": "Feature",
      "properties": {
        "district_name": "Delhi",
        "state": "Delhi",
        "taluka": "New Delhi",
        "risk_level": "Medium",
        "elevation": 216,
        "rainfall": 797,
        "population": "32.9M",
        "flood_zones": "Yamuna Floodplain, Burari, Mustafabad, Wazirabad",
        "river": "Yamuna River",
        "river_dist": 3.5
      },
      "geometry": {
        "type": "Polygon",
        "coordinates": [[[76.9500,28.4800],[77.0100,28.4750],[77.0700,28.4800],[77.1300,28.5000],[77.1900,28.5300],[77.2500,28.5700],[77.3100,28.6200],[77.3500,28.6700],[77.3700,28.7300],[77.3700,28.7900],[77.3500,28.8500],[77.3100,28.9000],[77.2600,28.9400],[77.2000,28.9600],[77.1400,28.9700],[77.0800,28.9600],[77.0200,28.9400],[76.9700,28.9100],[76.9300,28.8700],[76.9000,28.8200],[76.8900,28.7600],[76.8900,28.7000],[76.9000,28.6400],[76.9200,28.5800],[76.9400,28.5300],[76.9500,28.4800]]]
      }
    },
    {
      "type": "Feature",
      "properties": {
        "district_name": "Varanasi",
        "state": "Uttar Pradesh",
        "taluka": "Varanasi",
        "risk_level": "Medium",
        "elevation": 80,
        "rainfall": 1050,
        "population": "1.4M",
        "flood_zones": "Ganga Ghats, Sarnath, Shivpur",
        "river": "Ganges",
        "river_dist": 0.8
      },
      "geometry": {
        "type": "Polygon",
        "coordinates": [[[82.9200,25.2500],[82.9700,25.2450],[83.0200,25.2500],[83.0700,25.2700],[83.1100,25.3000],[83.1400,25.3400],[83.1500,25.3800],[83.1400,25.4200],[83.1100,25.4600],[83.0700,25.4900],[83.0200,25.5100],[82.9700,25.5150],[82.9200,25.5050],[82.8800,25.4800],[82.8500,25.4450],[82.8400,25.4050],[82.8500,25.3650],[82.8800,25.3250],[82.9200,25.2500]]]
      }
    },
    {
      "type": "Feature",
      "properties": {
        "district_name": "Bangalore",
        "state": "Karnataka",
        "taluka": "Bangalore Urban",
        "risk_level": "Low",
        "elevation": 920,
        "rainfall": 970,
        "population": "12.3M",
        "flood_zones": "Bellandur Lake Area, Varthur",
        "river": "Arkavathi River",
        "river_dist": 8.0
      },
      "geometry": {
        "type": "Polygon",
        "coordinates": [[[77.4700,12.8600],[77.5200,12.8550],[77.5700,12.8600],[77.6200,12.8750],[77.6700,12.9000],[77.7000,12.9300],[77.7200,12.9700],[77.7200,13.0100],[77.7000,13.0500],[77.6700,13.0800],[77.6200,13.1000],[77.5700,13.1100],[77.5200,13.1050],[77.4700,13.0900],[77.4300,13.0600],[77.4100,13.0250],[77.4000,12.9850],[77.4100,12.9450],[77.4300,12.9100],[77.4700,12.8600]]]
      }
    },
    {
      "type": "Feature",
      "properties": {
        "district_name": "Pune",
        "state": "Maharashtra",
        "taluka": "Pune City",
        "risk_level": "Low",
        "elevation": 560,
        "rainfall": 722,
        "population": "3.1M",
        "flood_zones": "Mutha River Banks, Panshet Dam area",
        "river": "Mutha River",
        "river_dist": 1.5
      },
      "geometry": {
        "type": "Polygon",
        "coordinates": [[[73.7300,18.4200],[73.7800,18.4150],[73.8300,18.4200],[73.8800,18.4400],[73.9300,18.4700],[73.9700,18.5100],[74.0000,18.5600],[74.0000,18.6100],[73.9700,18.6600],[73.9300,18.7000],[73.8800,18.7300],[73.8300,18.7400],[73.7800,18.7350],[73.7300,18.7200],[73.6900,18.6900],[73.6600,18.6500],[73.6500,18.6050],[73.6600,18.5600],[73.6900,18.4900],[73.7300,18.4200]]]
      }
    },
    {
      "type": "Feature",
      "properties": {
        "district_name": "Hyderabad",
        "state": "Telangana",
        "taluka": "Hyderabad",
        "risk_level": "Low",
        "elevation": 505,
        "rainfall": 812,
        "population": "9.7M",
        "flood_zones": "Musi River Banks, Amberpet, Uppal",
        "river": "Musi River",
        "river_dist": 2.5
      },
      "geometry": {
        "type": "Polygon",
        "coordinates": [[[78.3200,17.2800],[78.3800,17.2750],[78.4400,17.2800],[78.5000,17.3000],[78.5600,17.3300],[78.6100,17.3700],[78.6500,17.4200],[78.6700,17.4800],[78.6700,17.5400],[78.6500,17.6000],[78.6100,17.6500],[78.5600,17.6900],[78.5000,17.7200],[78.4400,17.7300],[78.3800,17.7250],[78.3200,17.7100],[78.2700,17.6800],[78.2300,17.6400],[78.2100,17.5900],[78.2000,17.5300],[78.2100,17.4700],[78.2300,17.4200],[78.2700,17.3700],[78.3200,17.2800]]]
      }
    }
  ]
}
